OBJECT_NAME,OBJECT_ID,EPOCH,MEAN_MOTION,ECCENTRICITY,INCLINATION,RA_OF_ASC_NODE,ARG_OF_PERICENTER,MEAN_ANOMALY,EPHEMERIS_TYPE,CLASSIFICATION_TYPE,NORAD_CAT_ID,ELEMENT_SET_NO,REV_AT_EPOCH,BSTAR,MEAN_MOTION_DOT,MEAN_MOTION_DDOT
GREENCUBE (IO-117),2022-080E,2026-05-13T11:27:25.553376,6.42583324,.00088105,70.1436,310.3212,297.6025,62.3740,0,U,53109,999,8983,0,-.3E-7,0
STARLINK-4410,2022-084R,2026-05-14T06:00:02.000160,15.17233012,.00008881,97.5999,194.8590,115.4104,109.4410,0,U,53204,999,563,-.89108482E-3,-.17736E-3,0
COSMOS 2558,2022-089A,2026-05-14T03:34:02.932320,15.68856496,.0002677,97.2255,237.0029,172.7139,187.4162,0,U,53323,999,21248,.5768E-3,.66331E-3,0
TECMS,2022-090A,2026-05-14T06:52:18.604416,15.21440219,.00015895,97.3154,203.3514,338.2072,21.9096,0,U,53346,999,20965,.11085048E-3,.2422E-4,0
DONGPO 02,2022-098J,2026-05-14T07:10:08.033376,15.68565179,.00024332,97.5474,262.7373,121.4024,238.7475,0,U,53452,999,20947,.51494078E-3,.58446E-3,0
DONGPO 01,2022-098K,2026-05-14T07:30:57.848256,15.66971976,.00008532,97.5536,263.3497,152.0098,208.1208,0,U,53453,999,20944,.49495617E-3,.52617E-3,0
SHERPA-LTC2,2022-107BG,2026-05-13T21:46:11.102880,14.69192062,.0397655,53.2348,5.4055,130.2391,233.4088,0,U,53754,999,19750,.23756E-3,.457E-4,0
CENTISPACE-1 S3,2022-108A,2026-05-14T06:44:25.947168,14.61220265,.00082157,53.5318,195.4605,251.2998,108.7085,0,U,53757,999,19657,.69666389E-4,.157E-5,0
CENTISPACE-1 S4,2022-108B,2026-05-14T06:44:24.990720,14.61893352,.00079493,53.5293,193.1381,236.8014,123.2200,0,U,53758,999,19660,.86129076E-4,.244E-5,0
BLUEWALKER-3,2022-111AL,2026-05-14T07:47:16.554624,15.37847381,.00074179,53.2284,192.8918,73.4549,286.7270,0,U,53807,999,20499,.99825915E-4,.3377E-4,0
YUNHAI-1 03,2022-115A,2026-05-14T05:54:30.104928,14.32694166,.00055271,98.5537,132.8256,135.9360,224.2265,0,U,53877,999,19065,.12073699E-3,.285E-5,0
OTB-3-GAZELLE,2022-127A,2026-05-13T12:29:16.067904,14.42661490,.00119569,98.3941,125.7548,296.0574,63.9385,0,U,54023,999,18936,.40293119E-4,.91E-6,0
HJ-2E,2022-132A,2026-05-14T07:05:38.224320,15.21787181,.00224073,97.3803,139.2972,125.4636,234.8696,0,U,54035,999,19926,.23656477E-3,.5334E-4,0
GONETS-M 23,2022-139A,2026-05-14T07:02:01.312800,12.42889227,.00207421,82.5096,9.3597,297.5872,62.3101,0,U,54150,999,16143,.12752442E-3,.27E-6,0
GONETS-M 24,2022-139B,2026-05-14T06:23:19.227264,12.42889865,.00161187,82.5012,8.4595,309.1326,50.8320,0,U,54151,999,16143,.1965806E-3,.37E-6,0
GONETS-M 25,2022-139C,2026-05-14T06:03:39.889728,12.42889061,.00200048,82.5073,9.1360,306.9601,52.9646,0,U,54152,999,16143,.13886813E-3,.29E-6,0
SKIF-D,2022-139D,2026-05-13T11:33:11.847168,5.00438534,.0007415,89.9555,96.6781,214.6423,145.3442,0,U,54153,999,6237,0,.28E-6,0
MATS,2022-147A,2026-05-14T00:18:51.183360,15.05136942,.00113861,97.6827,135.7640,321.8884,38.1536,0,U,54227,999,19262,.18892763E-3,.2631E-4,0
JILIN-1 GAOFEN 03D54,2022-155D,2026-05-14T08:16:15.702816,15.83191549,.00018845,97.6094,283.4086,169.8660,190.2646,0,U,54254,999,19492,.56578349E-3,.122518E-2,0
EOS-6 (OCEANSAT-3),2022-158A,2026-05-14T06:42:48.286656,14.47020000,.00022298,98.3513,232.9273,86.2119,273.9328,0,U,54361,999,18293,.56525859E-4,.162E-5,0
DONGPO 09,2022-167D,2026-05-14T06:31:27.282720,15.35559726,.00015852,97.6872,303.7922,213.7667,146.3475,0,U,54685,999,19024,.22622764E-3,.7733E-4,0
DONGPO 08,2022-167E,2026-05-14T07:47:06.712800,15.32958811,.00068752,97.6832,301.1834,289.0217,71.0279,0,U,54686,999,19013,.21277276E-3,.6694E-4,0
