{"fetched_at":"2026-05-15T02:58:15Z","count":8847,"tles":[{"name":"EOS-6 (OCEANSAT-3)","line1":"1 54361U 22158A   26134.27972554  .00000162  00000+0  56526-4 0  9990","line2":"2 54361  98.3513 232.9273 0002229  86.2119 273.9328 14.47020000182935","category":"Other"},{"name":"BLUEWALKER-3","line1":"1 53807U 22111AL  26134.32449716  .00003377  00000+0  99826-4 0  9999","line2":"2 53807  53.2284 192.8918 0007417  73.4549 286.7270 15.37847381204991","category":"Other"},{"name":"DONGPO 09","line1":"1 54685U 22167D   26134.27184355  .00007733  00000+0  22623-3 0  9994","line2":"2 54685  97.6872 303.7922 0001585 213.7667 146.3475 15.35559726190240","category":"Other"},{"name":"DONGPO 08","line1":"1 54686U 22167E   26134.32438325  .00006694  00000+0  21277-3 0  9999","line2":"2 54686  97.6832 301.1834 0006875 289.0217  71.0279 15.32958811190134","category":"Other"},{"name":"JILIN-1 GAOFEN 03D54","line1":"1 54254U 22155D   26134.34462619  .00122518  00000+0  56578-3 0  9998","line2":"2 54254  97.6094 283.4086 0001884 169.8660 190.2646 15.83191549194924","category":"Other"},{"name":"HJ-2E","line1":"1 54035U 22132A   26134.29558130  .00005334  00000+0  23656-3 0  9995","line2":"2 54035  97.3803 139.2972 0022407 125.4636 234.8696 15.21787181199260","category":"Other"},{"name":"DONGPO 02","line1":"1 53452U 22098J   26134.29870409  .00058446  00000+0  51494-3 0  9997","line2":"2 53452  97.5474 262.7373 0002433 121.4024 238.7475 15.68565179209474","category":"Other"},{"name":"SHERPA-LTC2","line1":"1 53754U 22107BG  26133.90707295  .00004570  00000+0  23756-3 0  9991","line2":"2 53754  53.2348   5.4055 0397655 130.2391 233.4088 14.69192062197504","category":"Other"},{"name":"CENTISPACE-1 S3","line1":"1 53757U 22108A   26134.28085587  .00000157  00000+0  69666-4 0  9998","line2":"2 53757  53.5318 195.4605 0008215 251.2998 108.7085 14.61220265196572","category":"Other"},{"name":"SKIF-D","line1":"1 54153U 22139D   26133.48138712  .00000028  00000+0  00000+0 0  9992","line2":"2 54153  89.9555  96.6781 0007415 214.6423 145.3442  5.00438534 62370","category":"Other"},{"name":"CENTISPACE-1 S4","line1":"1 53758U 22108B   26134.28084480  .00000244  00000+0  86129-4 0  9990","line2":"2 53758  53.5293 193.1381 0007949 236.8014 123.2200 14.61893352196600","category":"Other"},{"name":"GREENCUBE (IO-117)","line1":"1 53109U 22080E   26133.47737909 -.00000003  00000+0  00000+0 0  9993","line2":"2 53109  70.1436 310.3212 0008810 297.6025  62.3740  6.42583324 89838","category":"Other"},{"name":"GONETS-M 23","line1":"1 54150U 22139A   26134.29307075  .00000027  00000+0  12752-3 0  9999","line2":"2 54150  82.5096   9.3597 0020742 297.5872  62.3101 12.42889227161438","category":"Other"},{"name":"MATS","line1":"1 54227U 22147A   26134.01309240  .00002631  00000+0  18893-3 0  9994","line2":"2 54227  97.6827 135.7640 0011386 321.8884  38.1536 15.05136942192622","category":"Other"},{"name":"GONETS-M 24","line1":"1 54151U 22139B   26134.26619476  .00000037  00000+0  19658-3 0  9991","line2":"2 54151  82.5012   8.4595 0016118 309.1326  50.8320 12.42889865161434","category":"Other"},{"name":"OTB-3-GAZELLE","line1":"1 54023U 22127A   26133.52032486  .00000091  00000+0  40293-4 0  9994","line2":"2 54023  98.3941 125.7548 0011956 296.0574  63.9385 14.42661490189365","category":"Other"},{"name":"DONGPO 01","line1":"1 53453U 22098K   26134.31316954  .00052617  00000+0  49496-3 0  9994","line2":"2 53453  97.5536 263.3497 0000853 152.0098 208.1208 15.66971976209449","category":"Other"},{"name":"COSMOS 2558","line1":"1 53323U 22089A   26134.14864505  .00066331  00000+0  57680-3 0  9993","line2":"2 53323  97.2255 237.0029 0002677 172.7139 187.4162 15.68856496212487","category":"Other"},{"name":"GONETS-M 25","line1":"1 54152U 22139C   26134.25254502  .00000029  00000+0  13887-3 0  9995","line2":"2 54152  82.5073   9.1360 0020004 306.9601  52.9646 12.42889061161432","category":"Other"},{"name":"TECMS","line1":"1 53346U 22090A   26134.28632644  .00002422  00000+0  11085-3 0  9992","line2":"2 53346  97.3154 203.3514 0001589 338.2072  21.9096 15.21440219209656","category":"Other"},{"name":"YUNHAI-1 03","line1":"1 53877U 22115A   26134.24618177  .00000285  00000+0  12074-3 0  9994","line2":"2 53877  98.5537 132.8256 0005527 135.9360 224.2265 14.32694166190658","category":"Other"},{"name":"STARLINK-4410","line1":"1 53204U 22084R   26134.25002315 -.00017736  00000+0 -89108-3 0  9998","line2":"2 53204  97.5999 194.8590 0000888 115.4104 109.4410 15.17233012  5638","category":"Starlink"}]}